OBJECT_NAME,OBJECT_ID,EPOCH,MEAN_MOTION,ECCENTRICITY,INCLINATION,RA_OF_ASC_NODE,ARG_OF_PERICENTER,MEAN_ANOMALY,EPHEMERIS_TYPE,CLASSIFICATION_TYPE,NORAD_CAT_ID,ELEMENT_SET_NO,REV_AT_EPOCH,BSTAR,MEAN_MOTION_DOT,MEAN_MOTION_DDOT
SWARM A,2013-067B,2026-07-14T19:55:56.925408,15.51454234,.0003311,87.3296,45.9625,93.7207,266.4433,0,U,39452,999,71053,.10704E-3,.6355E-4,0
SWARM C,2013-067C,2026-07-14T19:55:48.853056,15.51453337,.0003302,87.3296,44.5433,93.8265,266.3374,0,U,39453,999,71049,.10497E-3,.6233E-4,0
BRITE-CA1 (TORONTO),2014-033L,2026-07-14T19:50:39.179040,14.72722139,.0078409,97.9771,324.2506,187.4375,172.5676,0,U,40020,999,64628,.85838E-4,.521E-5,0
OCO 2,2014-035A,2026-07-14T19:53:54.989088,14.57132084,.0001439,98.2020,136.7023,81.3644,278.7718,0,U,40059,999,64007,.47941E-4,.171E-5,0
BRITE-PL2 (HEWELIUSZ),2014-049B,2026-07-14T19:42:48.902112,14.94686691,.0014371,97.9120,308.0390,23.4813,336.7060,0,U,40119,999,64557,.55268E-4,.541E-5,0
MMS 1,2015-011A,2026-07-14T22:00:03.000096,0.28328227,.8301784,72.4634,348.4292,168.0295,247.0713,0,U,40482,999,135,0,-.1497E-4,0
MMS 2,2015-011B,2026-07-14T22:00:03.000096,0.28326164,.8304526,72.4666,348.4281,168.0302,247.0669,0,U,40483,999,135,0,-.1498E-4,0
MMS 3,2015-011C,2026-07-14T22:00:03.000096,0.28328218,.8302967,72.4670,348.4401,168.0400,247.0328,0,U,40484,999,132,0,-.1496E-4,0
MMS 4,2015-011D,2026-07-14T22:00:03.000096,0.28328234,.8302914,72.4626,348.4235,168.0499,247.0279,0,U,40485,999,138,0,-.1497E-4,0
ASTROSAT,2015-052A,2026-07-14T14:32:31.036128,14.82551732,.0007438,5.9977,317.9923,64.8495,295.2404,0,U,40930,999,58390,.55705E-4,.1128E-4,0
DAMPE,2015-078A,2026-07-14T19:38:31.581312,15.30851546,.0011628,97.4558,201.4225,347.0033,13.0907,0,U,41173,999,58877,.16747E-4,.422E-5,0
PISAT,2016-059B,2026-07-14T19:09:52.087392,14.69029285,.0030434,97.8191,195.0663,116.0496,244.3849,0,U,41784,999,52379,.85213E-4,.456E-5,0
HXMT (HUIYAN),2017-034A,2026-07-14T21:23:09.276576,15.18686914,.0032329,43.0154,28.7538,318.9121,40.9294,0,U,42758,999,50187,.11685E-3,.2252E-4,0
FLYING LAPTOP,2017-042G,2026-07-14T20:19:25.043232,15.01312785,.0019713,97.4797,350.3387,33.6563,326.5909,0,U,42831,999,49060,.18652E-3,.2352E-4,0
ZHANGHENG 1-01 (CSES-1),2018-015C,2026-07-14T20:06:40.286592,15.20605194,.0016361,97.6887,2.0497,166.1550,194.0137,0,U,43194,999,46884,.17299E-3,.3731E-4,0
SALSAT,2020-068K,2026-07-14T13:10:14.011392,15.30166467,.0009148,97.8856,200.2874,195.2534,164.8431,0,U,46495,999,31954,.14541E-3,.4163E-4,0
IXPE,2021-121A,2026-07-14T20:00:01.999008,15.10487576,.0006987,0.2294,108.0303,135.7314,78.7615,0,U,49954,999,536,.31669E-3,.6294E-4,0
SMILE,2026-109A,2026-07-09T17:59:58.643520,0.47504768,.83237117,70.0471,206.6613,287.0422,0.1458,0,U,69123,999,4,0,.1173E-4,0
