SWARM A                 
1 39452U 13067B   26195.83051997  .00006355  00000+0  10704-3 0  9998
2 39452  87.3296  45.9625 0003311  93.7207 266.4433 15.51454234710535
SWARM C                 
1 39453U 13067C   26195.83042654  .00006233  00000+0  10497-3 0  9993
2 39453  87.3296  44.5433 0003302  93.8265 266.3374 15.51453337710494
BRITE-CA1 (TORONTO)     
1 40020U 14033L   26195.82684235  .00000521  00000+0  85838-4 0  9991
2 40020  97.9771 324.2506 0078409 187.4375 172.5676 14.72722139646281
OCO 2                   
1 40059U 14035A   26195.82910867  .00000171  00000+0  47941-4 0  9992
2 40059  98.2020 136.7023 0001439  81.3644 278.7718 14.57132084640078
BRITE-PL2 (HEWELIUSZ)   
1 40119U 14049B   26195.82139933  .00000541  00000+0  55268-4 0  9993
2 40119  97.9120 308.0390 0014371  23.4813 336.7060 14.94686691645571
MMS 1                   
1 40482U 15011A   26195.91670139 -.00001497  00000+0  00000+0 0  9995
2 40482  72.4634 348.4292 8301784 168.0295 247.0713  0.28328227  1357
MMS 2                   
1 40483U 15011B   26195.91670139 -.00001498  00000+0  00000+0 0  9997
2 40483  72.4666 348.4281 8304526 168.0302 247.0669  0.28326164  1355
MMS 3                   
1 40484U 15011C   26195.91670139 -.00001496  00000+0  00000+0 0  9996
2 40484  72.4670 348.4401 8302967 168.0400 247.0328  0.28328218  1322
MMS 4                   
1 40485U 15011D   26195.91670139 -.00001497  00000+0  00000+0 0  9998
2 40485  72.4626 348.4235 8302914 168.0499 247.0279  0.28328234  1388
ASTROSAT                
1 40930U 15052A   26195.60591477  .00001128  00000+0  55705-4 0  9998
2 40930   5.9977 317.9923 0007438  64.8495 295.2404 14.82551732583906
DAMPE                   
1 41173U 15078A   26195.81842108  .00000422  00000+0  16747-4 0  9998
2 41173  97.4558 201.4225 0011628 347.0033  13.0907 15.30851546588773
PISAT                   
1 41784U 16059B   26195.79851953  .00000456  00000+0  85213-4 0  9992
2 41784  97.8191 195.0663 0030434 116.0496 244.3849 14.69029285523798
HXMT (HUIYAN)           
1 42758U 17034A   26195.89107959  .00002252  00000+0  11685-3 0  9996
2 42758  43.0154  28.7538 0032329 318.9121  40.9294 15.18686914501870
FLYING LAPTOP           
1 42831U 17042G   26195.84681763  .00002352  00000+0  18652-3 0  9994
2 42831  97.4797 350.3387 0019713  33.6563 326.5909 15.01312785490605
ZHANGHENG 1-01 (CSES-1) 
1 43194U 18015C   26195.83796628  .00003731  00000+0  17299-3 0  9992
2 43194  97.6887   2.0497 0016361 166.1550 194.0137 15.20605194468849
SALSAT                  
1 46495U 20068K   26195.54877328  .00004163  00000+0  14541-3 0  9992
2 46495  97.8856 200.2874 0009148 195.2534 164.8431 15.30166467319545
IXPE                    
1 49954U 21121A   26195.83335647  .00006294  00000+0  31669-3 0  9998
2 49954   0.2294 108.0303 0006987 135.7314  78.7615 15.10487576  5361
SMILE                   
1 69123U 26109A   26190.74998430  .00001173  00000+0  00000+0 0  9991
2 69123  70.0471 206.6613 8323711 287.0422   0.1458  0.47504768    49
